      2.10          N: GNSS NAV DATA                        RINEX VERSION / TYPE
fic2rin                                 11/12/2022 00:17:37 PGM / RUN BY / DATE
                                                            END OF HEADER
2  22 11 11  1 59 44.0 -.638392753899D-03  .170530256582D-11  .000000000000D+00
     .220000000000D+02 -.108968750000D+03  .433625205087D-08 -.188869572684D+01
    -.538490712643D-05  .199803910218D-01  .482052564621D-05  .515369575310D+04
     .439184000000D+06  .856816768646D-07 -.480480707161D+00  .456348061562D-06
     .966940555081D+00  .286843750000D+03 -.136450288264D+01 -.791675833619D-08
    -.335371112410D-09  .100000000000D+01  .223500000000D+04  .000000000000D+00
     .240000000000D+01  .000000000000D+00 -.176951289177D-07  .220000000000D+02
     .432000000000D+06  .400000000000D+01
26 22 11 11  1 59 44.0  .235418789089D-03  .113686837722D-11  .000000000000D+00
     .900000000000D+01  .121906250000D+03  .477269880206D-08  .307001122494D+01
     .630132853985D-05  .742300518323D-02  .977702438831D-05  .515359846497D+04
     .439184000000D+06 -.912696123123D-07 -.255729590056D+01 -.104308128357D-06
     .936118825609D+00  .179562500000D+03  .394169339238D+00 -.794175937758D-08
    -.285726187357D-10  .100000000000D+01  .223500000000D+04  .000000000000D+00
     .240000000000D+01  .000000000000D+00  .698491930962D-08  .900000000000D+01
     .432000000000D+06  .400000000000D+01
13 22 11 11  1 59 44.0  .422389712185D-03  .682121026330D-11  .000000000000D+00
     .530000000000D+02  .396875000000D+01  .466269421993D-08  .797879073860D+00
     .175088644028D-06  .665782287251D-02  .556372106075D-05  .515366466522D+04
     .439184000000D+06 -.633299350739D-07  .182960812037D+01  .428408384323D-07
     .968692140544D+00  .276968750000D+03  .950243448882D+00 -.808819404860D-08
     .678599694973D-10  .100000000000D+01  .223500000000D+04  .000000000000D+00
     .240000000000D+01  .000000000000D+00 -.116415321827D-07  .530000000000D+02
     .432000000000D+06  .400000000000D+01
27 22 11 11  1 59 44.0  .180680770427D-03 -.829913915368D-11  .000000000000D+00
     .300000000000D+01  .614375000000D+02  .467483758289D-08  .129793190307D+01
     .324472784996D-05  .107443409506D-01  .987201929092D-06  .515366244888D+04
     .439184000000D+06 -.968575477600D-07 -.145061616561D+01  .154599547386D-06
     .969940926916D+00  .365781250000D+03  .684800120377D+00 -.852678374620D-08
     .175007289756D-10  .100000000000D+01  .223500000000D+04  .000000000000D+00
     .240000000000D+01  .000000000000D+00  .139698386192D-08  .300000000000D+01
     .432000000000D+06  .400000000000D+01
29 22 11 11  1 59 44.0 -.566327013075D-03 -.284217094304D-11  .000000000000D+00
     .620000000000D+02  .329375000000D+02  .434696678290D-08  .118242304119D+01
     .163540244102D-05  .213324232027D-02  .804662704468D-06  .515362217331D+04
     .439184000000D+06  .465661287308D-07 -.137262711920D+01 -.428408384323D-07
     .978685187652D+00  .370593750000D+03  .248248565518D+01 -.821677083292D-08
     .182150444440D-10  .100000000000D+01  .223500000000D+04  .000000000000D+00
     .240000000000D+01  .000000000000D+00 -.102445483208D-07  .620000000000D+02
     .432000000000D+06  .400000000000D+01
1  22 11 11  2  0  0.0  .253650825471D-03 -.568434188608D-11  .000000000000D+00
     .910000000000D+02 -.116312500000D+03  .389587656461D-08 -.955743799960D+00
    -.600889325142D-05  .120425653877D-01  .511854887009D-05  .515365965080D+04
     .439200000000D+06  .143423676491D-06 -.385756237804D+00  .301748514175D-06
     .989168512736D+00  .294062500000D+03  .940866961766D+00 -.794283085079D-08
    -.342871424828D-09  .100000000000D+01  .223500000000D+04  .000000000000D+00
     .240000000000D+01  .000000000000D+00  .465661287308D-08  .910000000000D+02
     .432000000000D+06  .400000000000D+01
3  22 11 11  2  0  0.0 -.371990259737D-03 -.238742359215D-11  .000000000000D+00
     .680000000000D+02 -.543437500000D+02  .384516016636D-08 -.207153137322D+01
    -.271573662758D-05  .445226009469D-02  .105109065771D-04  .515378159142D+04
     .439200000000D+06  .540167093277D-07  .645990218897D+00 -.298023223877D-07
     .976257795479D+00  .186625000000D+03  .105199548557D+01 -.747423990352D-08
     .390373403476D-09  .100000000000D+01  .223500000000D+04  .000000000000D+00
     .340000000000D+01  .000000000000D+00  .186264514923D-08  .680000000000D+02
     .432000000000D+06  .400000000000D+01
8  22 11 11  2  0  0.0 -.932053662837D-04 -.181898940355D-11  .000000000000D+00
     .280000000000D+02  .656875000000D+02  .479162816197D-08  .131053681193D+01
     .356696546078D-05  .774225569330D-02  .102445483208D-05  .515361881638D+04
     .439200000000D+06  .428408384323D-07 -.147230484924D+01  .707805156708D-07
     .961131422959D+00  .356937500000D+03  .165412204277D+00 -.852999816581D-08
     .178578867098D-11  .100000000000D+01  .223500000000D+04  .000000000000D+00
     .240000000000D+01  .000000000000D+00  .512227416039D-08  .280000000000D+02
     .432000000000D+06  .400000000000D+01
7  22 11 11  2  0  0.0  .288883689791D-03 -.454747350886D-11  .000000000000D+00
     .230000000000D+02 -.159375000000D+01  .472983987396D-08 -.157780487180D+01
    -.819563865662D-07  .164638068527D-01  .791437923908D-05  .515361741829D+04
     .439200000000D+06  .337138772011D-06  .274427400136D+01 -.484287738800D-07
     .950773641116D+00  .215218750000D+03 -.223795496445D+01 -.782889753358D-08
    -.371444043564D-09  .100000000000D+01  .223500000000D+04  .000000000000D+00
     .240000000000D+01  .000000000000D+00 -.111758708954D-07  .230000000000D+02
     .432000000000D+06  .400000000000D+01
5  22 11 11  2  0  0.0 -.103824306279D-03 -.147792889038D-11  .000000000000D+00
     .101000000000D+03 -.490312500000D+02  .424196240905D-08  .156673210338D+01
    -.266544520855D-05  .592470983975D-02  .104475766420D-04  .515356398582D+04
     .439200000000D+06 -.577419996262D-07  .602046418541D+00 -.949949026108D-07
     .963311903819D+00  .183968750000D+03  .114024909668D+01 -.777532387345D-08
     .300012496725D-09  .100000000000D+01  .223500000000D+04  .000000000000D+00
     .240000000000D+01  .000000000000D+00 -.111758708954D-07  .101000000000D+03
     .432000000000D+06  .400000000000D+01
6  22 11 11  2  0  0.0  .515142921358D-03  .943600753089D-11  .000000000000D+00
     .690000000000D+02 -.108468750000D+03  .384658879729D-08 -.680056023337D+00
    -.564567744732D-05  .261438707821D-02  .537745654583D-05  .515355612946D+04
     .439200000000D+06 -.130385160446D-07 -.394039361892D+00 -.242143869400D-07
     .988448053378D+00  .291625000000D+03 -.919247553162D+00 -.785532720591D-08
    -.244295890190D-09  .100000000000D+01  .223500000000D+04  .000000000000D+00
     .240000000000D+01  .000000000000D+00  .372529029846D-08  .690000000000D+02
     .432000000000D+06  .400000000000D+01
4  22 11 11  2  0  0.0 -.885613262653D-04  .659383658785D-11  .000000000000D+00
     .221000000000D+03  .115625000000D+01  .475269796895D-08  .947702663003D+00
     .130385160446D-06  .213802198414D-02  .559166073799D-05  .515372850227D+04
     .439200000000D+06  .204890966415D-07  .172753274368D+01  .633299350739D-07
     .961461113492D+00  .270812500000D+03 -.311883660153D+01 -.801854829044D-08
     .220723479733D-09  .100000000000D+01  .223500000000D+04  .000000000000D+00
     .240000000000D+01  .000000000000D+00 -.465661287308D-08  .221000000000D+03
     .432000000000D+06  .400000000000D+01
15 22 11 11  2  0  0.0 -.134394504130D-04  .318323145621D-11  .000000000000D+00
     .160000000000D+02  .150625000000D+02  .550844373451D-08  .310353269219D+00
     .929459929466D-06  .147221413208D-01  .593438744545D-05  .515362868500D+04
     .439200000000D+06 -.253319740295D-06  .155917663474D+01  .119209289551D-06
     .930724594609D+00  .251250000000D+03  .115740240657D+01 -.863821695927D-08
     .279297348141D-09  .100000000000D+01  .223500000000D+04  .000000000000D+00
     .240000000000D+01  .000000000000D+00 -.107102096081D-07  .160000000000D+02
     .432000000000D+06  .400000000000D+01
10 22 11 11  2  0  0.0 -.113709829748D-04 -.159161572810D-11  .000000000000D+00
     .610000000000D+02 -.544062500000D+02  .378944355982D-08 -.296374368094D+01
    -.284612178802D-05  .814666913357D-02  .111199915409D-04  .515368860626D+04
     .439200000000D+06 -.335276126862D-07  .643297476791D+00 -.763684511185D-07
     .976034881873D+00  .172093750000D+03 -.250194510182D+01 -.739423657106D-08
     .468233789531D-09  .100000000000D+01  .223500000000D+04  .000000000000D+00
     .340000000000D+01  .000000000000D+00  .232830643654D-08  .610000000000D+02
     .432000000000D+06  .400000000000D+01
9  22 11 11  2  0  0.0 -.270481687039D-03  .557065504836D-11  .000000000000D+00
     .800000000000D+02  .443750000000D+01  .484805908398D-08  .167506478007D+01
     .201165676117D-06  .263619970065D-02  .566802918911D-05  .515371824837D+04
     .439200000000D+06  .763684511185D-07  .167239454789D+01 -.260770320892D-07
     .954612690719D+00  .265156250000D+03  .192354839103D+01 -.807462205471D-08
     .281440294547D-09  .100000000000D+01  .223500000000D+04  .000000000000D+00
     .240000000000D+01  .000000000000D+00  .931322574615D-09  .800000000000D+02
     .432000000000D+06  .400000000000D+01
24 22 11 11  2  0  0.0  .641052611172D-04 -.158024704433D-10  .000000000000D+00
     .100000000000D+02 -.106562500000D+02  .530950687656D-08 -.654120473898D+00
    -.376254320145D-06  .133906021947D-01  .756978988647D-05  .515366448402D+04
     .439200000000D+06  .484287738800D-07  .265702544569D+01  .258907675743D-06
     .934236623505D+00  .220781250000D+03  .858192612996D+00 -.843570852398D-08
    -.458590530708D-09  .100000000000D+01  .223500000000D+04  .000000000000D+00
     .240000000000D+01  .000000000000D+00  .279396772385D-08  .100000000000D+02
     .432000000000D+06  .400000000000D+01
